NORAD_CAT_ID,OBJECT_NAME,OBJECT_TYPE,EPOCH,MEAN_MOTION,ECCENTRICITY,INCLINATION,RA_OF_ASC_NODE,ARG_OF_PERICENTER,MEAN_ANOMALY,BSTAR,MEAN_MOTION_DOT,MEAN_MOTION_DDOT,TLE_LINE0,TLE_LINE1,TLE_LINE2,SEMIMAJOR_AXIS,PERIOD,APOGEE,PERIGEE,DECAYED
53569.0,STARLINK-4582,PAYLOAD,2024-08-13 02:37:17,15.089122,0.0001066,53.2157,109.0529,90.0591,270.0524,0.0056386,0.00090787,0.0,0 STARLINK-4582,1 53569U 22101AU  24226.10923099  .00090787  00000-0  56386-2 0  9994,2 53569  53.2157 109.0529 0001066  90.0591 270.0524 15.08912200109857,6917.66,95.433,540.262,538.787,0.0
53569.0,STARLINK-4582,PAYLOAD,2024-08-13 08:58:51,15.08834269,0.0002917,53.2157,107.8633,85.4453,274.6873,0.0010657,0.00016711,0.0,0 STARLINK-4582,1 53569U 22101AU  24226.37420166  .00016711  00000-0  10657-2 0  9996,2 53569  53.2157 107.8633 0002917  85.4453 274.6873 15.08834269109899,6917.898,95.438,541.781,537.745,0.0
53569.0,STARLINK-4582,PAYLOAD,2024-08-13 16:55:47,15.08822712,0.0004243,53.2159,106.377,115.405,244.7382,0.0023417,0.00037164,0.0,0 STARLINK-4582,1 53569U 22101AU  24226.70541259  .00037164  00000-0  23417-2 0  9993,2 53569  53.2159 106.3770 0004243 115.4050 244.7382 15.08822712109947,6917.933,95.439,542.734,536.863,0.0
53569.0,STARLINK-4582,PAYLOAD,2024-08-13 23:17:21,15.08781255,0.0001768,53.2159,105.1873,86.1138,274.0056,0.0024554,0.00038943,0.0,0 STARLINK-4582,1 53569U 22101AU  24226.97038610  .00038943  00000-0  24554-2 0  9993,2 53569  53.2159 105.1873 0001768  86.1138 274.0056 15.08781255110658,6918.06,95.441,541.148,538.702,0.0
53569.0,STARLINK-4582,PAYLOAD,2024-08-14 02:28:08,15.08783532,0.0001809,53.216,104.5929,92.2796,267.8403,0.0017148,0.00027066,0.0,0 STARLINK-4582,1 53569U 22101AU  24227.10287114  .00027066  00000-0  17148-2 0  9999,2 53569  53.2160 104.5929 0001809  92.2796 267.8403 15.08783532110004,6918.053,95.441,541.169,538.667,0.0
53569.0,STARLINK-4582,PAYLOAD,2024-08-14 08:49:40,15.08834659,0.0001835,53.2163,103.4029,83.8955,276.2246,0.0036059,0.00057561,0.0,0 STARLINK-4582,1 53569U 22101AU  24227.36783324  .00057561  00000-0  36059-2 0  9996,2 53569  53.2163 103.4029 0001835  83.8955 276.2246 15.08834659110048,6917.897,95.438,541.031,538.492,0.0
53569.0,STARLINK-4582,PAYLOAD,2024-08-14 19:57:22,15.08883119,0.0001762,53.2166,101.3243,87.297,272.8224,0.002772,0.00044158,0.0,0 STARLINK-4582,1 53569U 22101AU  24227.83150734  .00044158  00000-0  27720-2 0  9994,2 53569  53.2166 101.3243 0001762  87.2970 272.8224 15.08883119110784,6917.749,95.435,540.833,538.395,0.0
53569.0,STARLINK-4582,PAYLOAD,2024-08-14 23:08:08,15.08883686,0.0001381,53.2158,100.729,94.333,265.782,0.0022707,0.00036079,0.0,0 STARLINK-4582,1 53569U 22101AU  24227.96398304  .00036079  00000-0  22707-2 0  9998,2 53569  53.2158 100.7290 0001381  94.3330 265.7820 15.08883686110137,6917.747,95.435,540.567,538.657,0.0
53569.0,STARLINK-4582,PAYLOAD,2024-08-15 08:40:26,15.0887627,0.0002198,53.2151,98.9431,68.2526,291.87,0.0024829,0.00039489,0.0,0 STARLINK-4582,1 53569U 22101AU  24228.36141990  .00039489  00000-0  24829-2 0  9995,2 53569  53.2151  98.9431 0002198  68.2526 291.8700 15.08876270110867,6917.77,95.435,541.155,538.114,0.0
53569.0,STARLINK-4582,PAYLOAD,2024-08-15 21:23:31,15.0885911,0.00019,53.2144,96.5634,76.5731,283.5472,0.001387,0.00021867,0.0,0 STARLINK-4582,1 53569U 22101AU  24228.89133644  .00021867  00000-0  13870-2 0  9995,2 53569  53.2144  96.5634 0001900  76.5731 283.5472 15.08859110110271,6917.822,95.436,541.001,538.373,0.0
53569.0,STARLINK-4582,PAYLOAD,2024-08-15 22:58:54,15.08857278,0.0001663,53.215,96.2662,73.3659,286.7516,0.0016746,0.00026477,0.0,0 STARLINK-4582,1 53569U 22101AU  24228.95757639  .00026477  00000-0  16746-2 0  9995,2 53569  53.2150  96.2662 0001663  73.3659 286.7516 15.08857278110958,6917.828,95.436,540.843,538.542,0.0
53569.0,STARLINK-4582,PAYLOAD,2024-08-16 21:14:18,15.08865457,0.0001467,53.215,92.1006,88.7162,271.3998,0.0020061,0.00031806,0.0,0 STARLINK-4582,1 53569U 22101AU  24229.88493625  .00031806  00000-0  20061-2 0  9997,2 53569  53.2150  92.1006 0001467  88.7162 271.3998 15.08865457111094,6917.803,95.436,540.682,538.653,0.0
53569.0,STARLINK-4582,PAYLOAD,2024-08-17 00:25:04,15.08852787,0.0001679,53.2155,91.5088,78.3685,281.7495,0.001003,0.00015716,0.0,0 STARLINK-4582,1 53569U 22101AU  24230.01741687  .00015716  00000-0  10030-2 0  9995,2 53569  53.2155  91.5088 0001679  78.3685 281.7495 15.08852787110449,6917.841,95.437,540.868,538.545,0.0
53569.0,STARLINK-4582,PAYLOAD,2024-08-17 14:43:33,15.08837669,0.0001951,53.214,88.8297,98.6646,261.4567,0.00044767,6.843e-05,0.0,0 STARLINK-4582,1 53569U 22101AU  24230.61357942  .00006843  00000-0  44767-3 0  9994,2 53569  53.2140  88.8297 0001951  98.6646 261.4567 15.08837669110536,6917.888,95.438,541.102,538.403,0.0
53569.0,STARLINK-4582,PAYLOAD,2024-08-18 20:55:52,15.08861074,0.0001476,53.2163,83.1808,95.4797,264.6364,0.00070383,0.00010938,0.0,0 STARLINK-4582,1 53569U 22101AU  24231.87213269  .00010938  00000-0  70383-3 0  9999,2 53569  53.2163  83.1808 0001476  95.4797 264.6364 15.08861074110729,6917.816,95.436,540.702,538.66,0.0
53569.0,STARLINK-4582,PAYLOAD,2024-08-19 14:25:06,15.08847042,0.000147,53.2166,79.9097,102.1104,258.0053,0.00016112,2.278e-05,0.0,0 STARLINK-4582,1 53569U 22101AU  24232.60077401  .00002278  00000-0  16112-3 0  9995,2 53569  53.2166  79.9097 0001470 102.1104 258.0053 15.08847042111505,6917.859,95.437,540.741,538.707,0.0
53569.0,STARLINK-4582,PAYLOAD,2024-08-19 23:57:25,15.08839844,0.00013,53.2169,78.1269,94.1215,265.9925,3.5929e-05,2.84e-06,0.0,0 STARLINK-4582,1 53569U 22101AU  24232.99821616  .00000284  00000-0  35929-4 0  9995,2 53569  53.2169  78.1269 0001300  94.1215 265.9925 15.08839844110892,6917.881,95.438,540.645,538.847,0.0
53569.0,STARLINK-4582,PAYLOAD,2024-08-20 06:18:58,15.08836655,0.0001565,53.217,76.9377,100.0267,260.0902,3.4813e-05,2.66e-06,0.0,0 STARLINK-4582,1 53569U 22101AU  24233.26317794  .00000266  00000-0  34813-4 0  9994,2 53569  53.2170  76.9377 0001565 100.0267 260.0902 15.08836655111605,6917.891,95.438,540.838,538.673,0.0
53569.0,STARLINK-4582,PAYLOAD,2024-08-20 20:37:26,15.08849656,0.0001165,53.2166,74.2595,95.8518,264.2607,0.0003042,4.558e-05,0.0,0 STARLINK-4582,1 53569U 22101AU  24233.85933267  .00004558  00000-0  30420-3 0  9995,2 53569  53.2166  74.2595 0001165  95.8518 264.2607 15.08849656111028,6917.851,95.437,540.522,538.91,0.0
53569.0,STARLINK-4582,PAYLOAD,2024-08-21 18:52:50,15.08839187,0.0001124,53.2168,70.0963,96.5672,263.5448,0.00014691,2.051e-05,0.0,0 STARLINK-4582,1 53569U 22101AU  24234.78669956  .00002051  00000-0  14691-3 0  9997,2 53569  53.2168  70.0963 0001124  96.5672 263.5448 15.08839187111165,6917.883,95.438,540.525,538.97,0.0
53569.0,STARLINK-4582,PAYLOAD,2024-08-21 20:28:14,15.08837553,0.000117,53.2168,69.7987,92.7529,267.3597,0.00011826,1.595e-05,0.0,0 STARLINK-4582,1 53569U 22101AU  24234.85294062  .00001595  00000-0  11826-3 0  9996,2 53569  53.2168  69.7987 0001170  92.7529 267.3597 15.08837553111843,6917.888,95.438,540.562,538.943,0.0
